NORAD_CAT_ID,OBJECT_NAME,OBJECT_TYPE,EPOCH,MEAN_MOTION,ECCENTRICITY,INCLINATION,RA_OF_ASC_NODE,ARG_OF_PERICENTER,MEAN_ANOMALY,BSTAR,MEAN_MOTION_DOT,MEAN_MOTION_DDOT,TLE_LINE0,TLE_LINE1,TLE_LINE2,SEMIMAJOR_AXIS,PERIOD,APOGEE,PERIGEE,DECAYED
52366.0,STARLINK-3808,PAYLOAD,2023-02-15 12:13:48,15.08843942,0.0001166,53.2167,168.8246,100.3569,259.7555,1.1348e-05,-1.07e-06,0.0,0 STARLINK-3808,1 52366U 22045AM  23046.50959383 -.00000107  00000-0  11348-4 0  9992,2 52366  53.2167 168.8246 0001166 100.3569 259.7555 15.08843942 47116,6917.868,95.437,540.54,538.927,0.0
52366.0,STARLINK-3808,PAYLOAD,2023-02-15 20:10:42,15.0888121,8.34e-05,53.216,167.333,144.9896,215.1151,0.00049521,7.611e-05,0.0,0 STARLINK-3808,1 52366U 22045AM  23046.84076919  .00007611  00000-0  49521-3 0  9993,2 52366  53.2160 167.3330 0000834 144.9896 215.1151 15.08881210 47168,6917.754,95.435,540.196,539.042,0.0
52366.0,STARLINK-3808,PAYLOAD,2023-02-16 13:39:57,15.08863342,0.0001315,53.2171,164.0656,95.3415,264.7727,0.00043301,6.614e-05,0.0,0 STARLINK-3808,1 52366U 22045AM  23047.56942049  .00006614  00000-0  43301-3 0  9991,2 52366  53.2171 164.0656 0001315  95.3415 264.7727 15.08863342 47273,6917.809,95.436,540.584,538.764,0.0
52366.0,STARLINK-3808,PAYLOAD,2023-02-16 15:15:20,15.08865831,0.0001352,53.2179,163.7687,97.7369,262.3777,0.00037504,5.69e-05,0.0,0 STARLINK-3808,1 52366U 22045AM  23047.63565801  .00005690  00000-0  37504-3 0  9997,2 52366  53.2179 163.7687 0001352  97.7369 262.3777 15.08865831 47281,6917.801,95.436,540.602,538.731,0.0
52366.0,STARLINK-3808,PAYLOAD,2023-02-16 20:01:29,15.08887405,6.31e-05,53.215,162.8745,89.4243,270.6822,0.0007422,0.00011559,0.0,0 STARLINK-3808,1 52366U 22045AM  23047.83436349  .00011559  00000-0  74220-3 0  9990,2 52366  53.2150 162.8745 0000631  89.4243 270.6822 15.08887405 47311,6917.735,95.435,540.037,539.164,0.0
52366.0,STARLINK-3808,PAYLOAD,2023-02-17 07:09:13,15.08812383,8.37e-05,53.215,160.7944,82.5225,277.5862,-0.00055554,-9.111e-05,0.0,0 STARLINK-3808,1 52366U 22045AM  23048.29807575 -.00009111  00000-0 -55554-3 0  9996,2 52366  53.2150 160.7944 0000837  82.5225 277.5862 15.08812383 47381,6917.965,95.439,540.409,539.251,0.0
52366.0,STARLINK-3808,PAYLOAD,2023-02-17 13:30:45,15.08833036,0.0001083,53.2162,159.6045,93.9161,266.1955,-0.00010496,-1.957e-05,0.0,0 STARLINK-3808,1 52366U 22045AM  23048.56303114 -.00001957  00000-0 -10496-3 0  9992,2 52366  53.2162 159.6045 0001083  93.9161 266.1955 15.08833036 47422,6917.902,95.438,540.516,539.017,0.0
52366.0,STARLINK-3808,PAYLOAD,2023-02-17 18:16:55,15.08840387,0.0001107,53.216,158.7126,86.7386,273.3733,0.0003893,5.913e-05,0.0,0 STARLINK-3808,1 52366U 22045AM  23048.76174913  .00005913  00000-0  38930-3 0  9994,2 52366  53.2160 158.7126 0001107  86.7386 273.3733 15.08840387 47450,6917.879,95.438,540.51,538.978,0.0
52366.0,STARLINK-3808,PAYLOAD,2023-02-18 10:10:48,15.08821357,0.0001388,53.2164,155.7394,94.3555,265.7596,0.00022249,3.253e-05,0.0,0 STARLINK-3808,1 52366U 22045AM  23049.42416810  .00003253  00000-0  22249-3 0  9994,2 52366  53.2164 155.7394 0001388  94.3555 265.7596 15.08821357 47551,6917.937,95.439,540.763,538.842,0.0
52366.0,STARLINK-3808,PAYLOAD,2023-02-18 13:21:34,15.08826809,0.0001172,53.2165,155.1454,74.6904,285.4218,0.0016254,0.00025665,0.0,0 STARLINK-3808,1 52366U 22045AM  23049.55665175  .00025665  00000-0  16254-2 0  9997,2 52366  53.2165 155.1454 0001172  74.6904 285.4218 15.08826809 47572,6917.921,95.438,540.596,538.975,0.0
52366.0,STARLINK-3808,PAYLOAD,2023-02-18 18:07:44,15.0884148,0.0001092,53.2163,154.2529,71.4183,288.6927,0.0024099,0.00038276,0.0,0 STARLINK-3808,1 52366U 22045AM  23049.75537244  .00038276  00000-0  24099-2 0  9992,2 52366  53.2163 154.2529 0001092  71.4183 288.6927 15.08841480 47606,6917.876,95.437,540.496,538.985,0.0
52366.0,STARLINK-3808,PAYLOAD,2023-02-19 13:12:21,15.08868301,0.0001237,53.2168,150.6844,73.8725,286.2403,0.0014659,0.00023137,0.0,0 STARLINK-3808,1 52366U 22045AM  23050.55024687  .00023137  00000-0  14659-2 0  9995,2 52366  53.2168 150.6844 0001237  73.8725 286.2403 15.08868301 47727,6917.794,95.436,540.515,538.803,0.0
52366.0,STARLINK-3808,PAYLOAD,2023-02-20 06:41:35,15.08855857,0.0001006,53.218,147.415,81.7564,278.3542,0.00086527,0.00013516,0.0,0 STARLINK-3808,1 52366U 22045AM  23051.27888096  .00013516  00000-0  86527-3 0  9991,2 52366  53.2180 147.4150 0001006  81.7564 278.3542 15.08855857 47838,6917.832,95.437,540.393,539.001,0.0
52366.0,STARLINK-3808,PAYLOAD,2023-02-20 13:03:07,15.08875033,0.0001454,53.217,146.2242,85.3974,274.7184,0.001866,0.00029563,0.0,0 STARLINK-3808,1 52366U 22045AM  23051.54383529  .00029563  00000-0  18660-2 0  9993,2 52366  53.2170 146.2242 0001454  85.3974 274.7184 15.08875033 47872,6917.773,95.435,540.644,538.632,0.0
52366.0,STARLINK-3808,PAYLOAD,2023-02-20 17:49:16,15.08888737,0.0001445,53.217,145.3323,84.2039,275.9117,0.0019435,0.0003082,0.0,0 STARLINK-3808,1 52366U 22045AM  23051.74254945  .00030820  00000-0  19435-2 0  9993,2 52366  53.2170 145.3323 0001445  84.2039 275.9117 15.08888737 47900,6917.731,95.434,540.596,538.597,0.0
52366.0,STARLINK-3808,PAYLOAD,2023-02-21 06:32:21,15.08844798,0.0001487,53.217,142.9525,105.2644,254.8513,0.00075313,0.0001172,0.0,0 STARLINK-3808,1 52366U 22045AM  23052.27247646  .00011720  00000-0  75313-3 0  9998,2 52366  53.2170 142.9525 0001487 105.2644 254.8513 15.08844798 47982,6917.866,95.437,540.759,538.702,0.0
52366.0,STARLINK-3808,PAYLOAD,2023-02-21 12:53:54,15.08854523,0.0001442,53.2168,141.7648,100.9308,259.1846,0.0019029,0.00030139,0.0,0 STARLINK-3808,1 52366U 22045AM  23052.53743604  .00030139  00000-0  19029-2 0  9998,2 52366  53.2168 141.7648 0001442 100.9308 259.1846 15.08854523 48022,6917.836,95.437,540.699,538.703,0.0
52366.0,STARLINK-3808,PAYLOAD,2023-02-21 17:40:03,15.08866773,0.0001458,53.2168,140.8722,103.648,256.4675,0.0024201,0.00038467,0.0,0 STARLINK-3808,1 52366U 22045AM  23052.73615365  .00038467  00000-0  24201-2 0  9992,2 52366  53.2168 140.8722 0001458 103.6480 256.4675 15.08866773 48056,6917.799,95.436,540.672,538.655,0.0
52366.0,STARLINK-3808,PAYLOAD,2023-02-21 22:26:13,15.08842428,0.0001822,53.2174,139.9797,88.7674,271.3527,0.00093834,0.00014678,0.0,0 STARLINK-3808,1 52366U 22045AM  23052.93487816  .00014678  00000-0  93834-3 0  9999,2 52366  53.2174 139.9797 0001822  88.7674 271.3527 15.08842428 48083,6917.873,95.437,540.998,538.478,0.0
52366.0,STARLINK-3808,PAYLOAD,2023-02-22 11:09:18,15.08839523,0.0001607,53.217,137.602,100.6211,259.4962,0.00082352,0.00012842,0.0,0 STARLINK-3808,1 52366U 22045AM  23053.46479893  .00012842  00000-0  82352-3 0  9998,2 52366  53.2170 137.6020 0001607 100.6211 259.4962 15.08839523 48166,6917.882,95.438,540.859,538.635,0.0
52366.0,STARLINK-3808,PAYLOAD,2023-02-22 22:17:00,15.08834123,0.0001703,53.2168,135.5198,93.0492,267.0695,0.00027311,4.06e-05,0.0,0 STARLINK-3808,1 52366U 22045AM  23053.92848225  .00004060  00000-0  27311-3 0  9995,2 52366  53.2168 135.5198 0001703  93.0492 267.0695 15.08834123 48236,6917.898,95.438,540.941,538.585,0.0
52366.0,STARLINK-3808,PAYLOAD,2023-02-23 11:00:06,15.08838247,0.0001499,53.2162,133.1414,95.5366,264.5797,0.00045563,6.97e-05,0.0,0 STARLINK-3808,1 52366U 22045AM  23054.45840457  .00006970  00000-0  45563-3 0  9994,2 52366  53.2162 133.1414 0001499  95.5366 264.5797 15.08838247 48319,6917.886,95.438,540.788,538.714,0.0
52366.0,STARLINK-3808,PAYLOAD,2023-02-23 17:21:38,15.08847515,0.0001644,53.2171,131.9515,92.6551,267.4629,0.00086994,0.00013587,0.0,0 STARLINK-3808,1 52366U 22045AM  23054.72336430  .00013587  00000-0  86994-3 0  9990,2 52366  53.2171 131.9515 0001644  92.6551 267.4629 15.08847515 48351,6917.857,95.437,540.86,538.585,0.0
52366.0,STARLINK-3808,PAYLOAD,2023-02-24 12:26:15,15.08860349,0.0001244,53.2158,128.3836,96.5692,263.5442,0.0011719,0.00018422,0.0,0 STARLINK-3808,1 52366U 22045AM  23055.51824050  .00018422  00000-0  11719-2 0  9993,2 52366  53.2158 128.3836 0001244  96.5692 263.5442 15.08860349 48470,6917.818,95.436,540.544,538.823,0.0
52366.0,STARLINK-3808,PAYLOAD,2023-02-24 17:12:25,15.08868075,0.000125,53.2157,127.4911,95.5756,264.5378,0.0011369,0.00017866,0.0,0 STARLINK-3808,1 52366U 22045AM  23055.71695707  .00017866  00000-0  11369-2 0  9992,2 52366  53.2157 127.4911 0001250  95.5756 264.5378 15.08868075 48507,6917.795,95.436,540.524,538.795,0.0
52366.0,STARLINK-3808,PAYLOAD,2023-02-24 21:58:35,15.08840367,0.0001541,53.2161,126.5985,75.8442,284.2722,0.00061088,9.448e-05,0.0,0 STARLINK-3808,1 52366U 22045AM  23055.91568537  .00009448  00000-0  61088-3 0  9995,2 52366  53.2161 126.5985 0001541  75.8442 284.2722 15.08840367 48538,6917.879,95.438,540.81,538.678,0.0
52366.0,STARLINK-3808,PAYLOAD,2023-02-25 13:52:27,15.08821874,0.0001163,53.2156,123.6251,74.2402,285.8719,0.001284,0.00020196,0.0,0 STARLINK-3808,1 52366U 22045AM  23056.57809544  .00020196  00000-0  12840-2 0  9998,2 52366  53.2156 123.6251 0001163  74.2402 285.8719 15.08821874 48631,6917.936,95.439,540.605,538.996,0.0
52366.0,STARLINK-3808,PAYLOAD,2023-02-25 21:49:23,15.08841435,0.0001765,53.216,122.1384,76.58,283.5389,0.0016203,0.00025594,0.0,0 STARLINK-3808,1 52366U 22045AM  23056.90929900  .00025594  00000-0  16203-2 0  9998,2 52366  53.2160 122.1384 0001765  76.5800 283.5389 15.08841435 48680,6917.876,95.437,540.962,538.52,0.0
52366.0,STARLINK-3808,PAYLOAD,2023-02-26 08:57:04,15.08873243,0.0001246,53.2161,120.0572,70.976,289.1367,0.0020122,0.00031911,0.0,0 STARLINK-3808,1 52366U 22045AM  23057.37297046  .00031911  00000-0  20122-2 0  9994,2 52366  53.2161 120.0572 0001246  70.9760 289.1367 15.08873243 48752,6917.779,95.435,540.506,538.782,0.0
52366.0,STARLINK-3808,PAYLOAD,2023-02-26 10:32:27,15.08878288,0.0001334,53.216,119.76,70.6357,289.478,0.002067,0.00032796,0.0,0 STARLINK-3808,1 52366U 22045AM  23057.43920903  .00032796  00000-0  20670-2 0  9996,2 52366  53.2160 119.7600 0001334  70.6357 289.4780 15.08878288 48762,6917.763,95.435,540.551,538.706,0.0
